[{"OBJECT_NAME":"LEMUR-2-ARIANNA","OBJECT_ID":"2025-009CU","EPOCH":"2026-03-07T04:58:35.474592","MEAN_MOTION":15.00823449,"ECCENTRICITY":0.000449,"INCLINATION":97.7004,"RA_OF_ASC_NODE":148.5334,"ARG_OF_PERICENTER":151.5572,"MEAN_ANOMALY":208.5897,"EPHEMERIS_TYPE":0,"CLASSIFICATION_TYPE":"U","NORAD_CAT_ID":62699,"ELEMENT_SET_NO":999,"REV_AT_EPOCH":6225,"BSTAR":0.00094591,"MEAN_MOTION_DOT":0.00011975,"MEAN_MOTION_DDOT":0},{"OBJECT_NAME":"LEMUR-2-ALISIA","OBJECT_ID":"2025-009DB","EPOCH":"2026-03-07T12:54:41.407200","MEAN_MOTION":15.01095647,"ECCENTRICITY":0.00065159,"INCLINATION":97.705,"RA_OF_ASC_NODE":149.5157,"ARG_OF_PERICENTER":164.2756,"MEAN_ANOMALY":195.8672,"EPHEMERIS_TYPE":0,"CLASSIFICATION_TYPE":"U","NORAD_CAT_ID":62706,"ELEMENT_SET_NO":999,"REV_AT_EPOCH":8490,"BSTAR":0.00094115062,"MEAN_MOTION_DOT":0.00012002,"MEAN_MOTION_DDOT":0},{"OBJECT_NAME":"LEMUR-2-ROUNDTRIPPER","OBJECT_ID":"2025-009DG","EPOCH":"2026-03-07T05:31:08.397120","MEAN_MOTION":15.02014684,"ECCENTRICITY":0.0004979,"INCLINATION":97.73,"RA_OF_ASC_NODE":149.182,"ARG_OF_PERICENTER":129.944,"MEAN_ANOMALY":230.2223,"EPHEMERIS_TYPE":0,"CLASSIFICATION_TYPE":"U","NORAD_CAT_ID":62711,"ELEMENT_SET_NO":999,"REV_AT_EPOCH":6231,"BSTAR":0.00099956,"MEAN_MOTION_DOT":0.00013062,"MEAN_MOTION_DDOT":0},{"OBJECT_NAME":"LEMUR-2-MYNAMEISJEFF","OBJECT_ID":"2025-009DH","EPOCH":"2026-03-07T03:53:06.919296","MEAN_MOTION":15.02002172,"ECCENTRICITY":0.0004125,"INCLINATION":97.7349,"RA_OF_ASC_NODE":149.4349,"ARG_OF_PERICENTER":156.2908,"MEAN_ANOMALY":203.8507,"EPHEMERIS_TYPE":0,"CLASSIFICATION_TYPE":"U","NORAD_CAT_ID":62712,"ELEMENT_SET_NO":999,"REV_AT_EPOCH":6230,"BSTAR":0.00084595115,"MEAN_MOTION_DOT":0.00011038,"MEAN_MOTION_DDOT":0},{"OBJECT_NAME":"LEMUR-2-LEIA-PHILIP","OBJECT_ID":"2025-052AN","EPOCH":"2026-03-07T14:37:30.948672","MEAN_MOTION":14.96604654,"ECCENTRICITY":0.00030796,"INCLINATION":97.6949,"RA_OF_ASC_NODE":320.2401,"ARG_OF_PERICENTER":187.0439,"MEAN_ANOMALY":173.074,"EPHEMERIS_TYPE":0,"CLASSIFICATION_TYPE":"U","NORAD_CAT_ID":63246,"ELEMENT_SET_NO":999,"REV_AT_EPOCH":5347,"BSTAR":0.00072987914,"MEAN_MOTION_DOT":8.263e-5,"MEAN_MOTION_DDOT":0},{"OBJECT_NAME":"LEMUR-2-LIA-MARTIN","OBJECT_ID":"2025-052AQ","EPOCH":"2026-03-07T15:08:40.405344","MEAN_MOTION":14.96772723,"ECCENTRICITY":0.00034877,"INCLINATION":97.7,"RA_OF_ASC_NODE":320.6216,"ARG_OF_PERICENTER":148.0297,"MEAN_ANOMALY":212.1137,"EPHEMERIS_TYPE":0,"CLASSIFICATION_TYPE":"U","NORAD_CAT_ID":63248,"ELEMENT_SET_NO":999,"REV_AT_EPOCH":5348,"BSTAR":0.00073959345,"MEAN_MOTION_DOT":8.41e-5,"MEAN_MOTION_DDOT":0},{"OBJECT_NAME":"LEMUR-2-DELOITTE-1","OBJECT_ID":"2025-052BB","EPOCH":"2026-03-07T06:22:19.936992","MEAN_MOTION":14.96765563,"ECCENTRICITY":0.0003215,"INCLINATION":97.7044,"RA_OF_ASC_NODE":320.5753,"ARG_OF_PERICENTER":84.7001,"MEAN_ANOMALY":275.4588,"EPHEMERIS_TYPE":0,"CLASSIFICATION_TYPE":"U","NORAD_CAT_ID":63259,"ELEMENT_SET_NO":999,"REV_AT_EPOCH":5344,"BSTAR":0.00060439,"MEAN_MOTION_DOT":6.859e-5,"MEAN_MOTION_DDOT":0},{"OBJECT_NAME":"LEMUR-2-EMERSONROSE","OBJECT_ID":"2025-052BD","EPOCH":"2026-03-07T14:35:29.138496","MEAN_MOTION":14.98200171,"ECCENTRICITY":0.00030625,"INCLINATION":97.7023,"RA_OF_ASC_NODE":321.2681,"ARG_OF_PERICENTER":52.3468,"MEAN_ANOMALY":307.8032,"EPHEMERIS_TYPE":0,"CLASSIFICATION_TYPE":"U","NORAD_CAT_ID":63261,"ELEMENT_SET_NO":999,"REV_AT_EPOCH":5352,"BSTAR":0.00069546817,"MEAN_MOTION_DOT":8.202e-5,"MEAN_MOTION_DDOT":0},{"OBJECT_NAME":"LEMUR-2-MARACHE-FRAN","OBJECT_ID":"2025-052BE","EPOCH":"2026-03-07T15:20:40.532064","MEAN_MOTION":14.9885953,"ECCENTRICITY":0.00023475,"INCLINATION":97.6991,"RA_OF_ASC_NODE":321.4897,"ARG_OF_PERICENTER":45.0874,"MEAN_ANOMALY":315.0539,"EPHEMERIS_TYPE":0,"CLASSIFICATION_TYPE":"U","NORAD_CAT_ID":63262,"ELEMENT_SET_NO":999,"REV_AT_EPOCH":5354,"BSTAR":0.00084433593,"MEAN_MOTION_DOT":0.00010144,"MEAN_MOTION_DDOT":0},{"OBJECT_NAME":"LEMUR-2-THEFALCONER","OBJECT_ID":"2025-052BG","EPOCH":"2026-03-07T11:27:37.075680","MEAN_MOTION":14.9647899,"ECCENTRICITY":0.00023905,"INCLINATION":97.6974,"RA_OF_ASC_NODE":320.5142,"ARG_OF_PERICENTER":20.9743,"MEAN_ANOMALY":339.1576,"EPHEMERIS_TYPE":0,"CLASSIFICATION_TYPE":"U","NORAD_CAT_ID":63264,"ELEMENT_SET_NO":999,"REV_AT_EPOCH":5347,"BSTAR":0.00068955891,"MEAN_MOTION_DOT":7.777e-5,"MEAN_MOTION_DDOT":0},{"OBJECT_NAME":"LEMUR-2-UNTITLED-SC","OBJECT_ID":"2025-061A","EPOCH":"2026-03-07T10:40:11.127072","MEAN_MOTION":15.12666904,"ECCENTRICITY":0.00171462,"INCLINATION":97.5557,"RA_OF_ASC_NODE":42.6628,"ARG_OF_PERICENTER":254.8133,"MEAN_ANOMALY":105.1202,"EPHEMERIS_TYPE":0,"CLASSIFICATION_TYPE":"U","NORAD_CAT_ID":63351,"ELEMENT_SET_NO":999,"REV_AT_EPOCH":5220,"BSTAR":0.00037992996,"MEAN_MOTION_DOT":6.603e-5,"MEAN_MOTION_DDOT":0},{"OBJECT_NAME":"LEMUR-2-ESPERANZA","OBJECT_ID":"2025-061B","EPOCH":"2026-03-07T10:15:34.065504","MEAN_MOTION":15.12740115,"ECCENTRICITY":0.00168694,"INCLINATION":97.5565,"RA_OF_ASC_NODE":42.7164,"ARG_OF_PERICENTER":254.216,"MEAN_ANOMALY":105.7211,"EPHEMERIS_TYPE":0,"CLASSIFICATION_TYPE":"U","NORAD_CAT_ID":63352,"ELEMENT_SET_NO":999,"REV_AT_EPOCH":5220,"BSTAR":0.00038435633,"MEAN_MOTION_DOT":6.694e-5,"MEAN_MOTION_DDOT":0},{"OBJECT_NAME":"LEMUR-2-KREMPEL-BRO2","OBJECT_ID":"2025-061C","EPOCH":"2026-03-07T11:35:46.860000","MEAN_MOTION":15.13148061,"ECCENTRICITY":0.00178779,"INCLINATION":97.5611,"RA_OF_ASC_NODE":43.1756,"ARG_OF_PERICENTER":246.0841,"MEAN_ANOMALY":113.8518,"EPHEMERIS_TYPE":0,"CLASSIFICATION_TYPE":"U","NORAD_CAT_ID":63353,"ELEMENT_SET_NO":999,"REV_AT_EPOCH":5222,"BSTAR":0.00043666971,"MEAN_MOTION_DOT":7.706e-5,"MEAN_MOTION_DDOT":0},{"OBJECT_NAME":"LEMUR-2-THERMORAPTOR","OBJECT_ID":"2025-061D","EPOCH":"2026-03-07T11:16:41.014560","MEAN_MOTION":15.13226528,"ECCENTRICITY":0.00175248,"INCLINATION":97.562,"RA_OF_ASC_NODE":43.2201,"ARG_OF_PERICENTER":245.04,"MEAN_ANOMALY":114.9011,"EPHEMERIS_TYPE":0,"CLASSIFICATION_TYPE":"U","NORAD_CAT_ID":63354,"ELEMENT_SET_NO":999,"REV_AT_EPOCH":5222,"BSTAR":0.00041711445,"MEAN_MOTION_DOT":7.373e-5,"MEAN_MOTION_DDOT":0},{"OBJECT_NAME":"LEMUR-2-NEUROSPICY","OBJECT_ID":"2025-061E","EPOCH":"2026-03-07T10:46:53.971392","MEAN_MOTION":15.13340811,"ECCENTRICITY":0.00152516,"INCLINATION":97.5545,"RA_OF_ASC_NODE":42.9056,"ARG_OF_PERICENTER":248.7763,"MEAN_ANOMALY":111.184,"EPHEMERIS_TYPE":0,"CLASSIFICATION_TYPE":"U","NORAD_CAT_ID":63355,"ELEMENT_SET_NO":999,"REV_AT_EPOCH":5222,"BSTAR":0.00042268559,"MEAN_MOTION_DOT":7.49e-5,"MEAN_MOTION_DDOT":0},{"OBJECT_NAME":"LEMUR-2-TILLINFINITY","OBJECT_ID":"2025-061F","EPOCH":"2026-03-07T10:58:57.361440","MEAN_MOTION":15.13915,"ECCENTRICITY":0.00166613,"INCLINATION":97.5534,"RA_OF_ASC_NODE":43.1333,"ARG_OF_PERICENTER":235.9733,"MEAN_ANOMALY":123.9916,"EPHEMERIS_TYPE":0,"CLASSIFICATION_TYPE":"U","NORAD_CAT_ID":63356,"ELEMENT_SET_NO":999,"REV_AT_EPOCH":5224,"BSTAR":0.00040123101,"MEAN_MOTION_DOT":7.226e-5,"MEAN_MOTION_DDOT":0}]
