LEMUR-2-ARIANNA         
1 62699U 25009CU  26066.20735503  .00011975  00000+0  94591-3 0  9996
2 62699  97.7004 148.5334 0004490 151.5572 208.5897 15.00823449 62252
LEMUR-2-ALISIA          
1 62706U 25009DB  26066.53797925  .00012002  00000+0  94115-3 0  9991
2 62706  97.7050 149.5157 0006515 164.2756 195.8672 15.01095647 84908
LEMUR-2-ROUNDTRIPPER    
1 62711U 25009DG  26066.22995830  .00013062  00000+0  99956-3 0  9993
2 62711  97.7300 149.1820 0004979 129.9440 230.2223 15.02014684 62315
LEMUR-2-MYNAMEISJEFF    
1 62712U 25009DH  26066.16188564  .00011038  00000+0  84595-3 0  9999
2 62712  97.7349 149.4349 0004125 156.2908 203.8507 15.02002172 62302
LEMUR-2-LEIA-PHILIP     
1 63246U 25052AN  26066.60938598  .00008263  00000+0  72988-3 0  9998
2 63246  97.6949 320.2401 0003079 187.0439 173.0740 14.96604654 53476
LEMUR-2-LIA-MARTIN      
1 63248U 25052AQ  26066.63102321  .00008410  00000+0  73959-3 0  9993
2 63248  97.7000 320.6216 0003487 148.0297 212.1137 14.96772723 53486
LEMUR-2-DELOITTE-1      
1 63259U 25052BB  26066.26550853  .00006859  00000+0  60439-3 0  9995
2 63259  97.7044 320.5753 0003215  84.7001 275.4588 14.96765563 53441
LEMUR-2-EMERSONROSE     
1 63261U 25052BD  26066.60797614  .00008202  00000+0  69547-3 0  9997
2 63261  97.7023 321.2681 0003062  52.3468 307.8032 14.98200171 53521
LEMUR-2-MARACHE-FRAN    
1 63262U 25052BE  26066.63935801  .00010144  00000+0  84434-3 0  9993
2 63262  97.6991 321.4897 0002347  45.0874 315.0539 14.98859530 53545
LEMUR-2-THEFALCONER     
1 63264U 25052BG  26066.47751245  .00007777  00000+0  68956-3 0  9994
2 63264  97.6974 320.5142 0002390  20.9743 339.1576 14.96478990 53471
LEMUR-2-UNTITLED-SC     
1 63351U 25061A   26066.44457323  .00006603  00000+0  37993-3 0  9992
2 63351  97.5557  42.6628 0017146 254.8133 105.1202 15.12666904 52201
LEMUR-2-ESPERANZA       
1 63352U 25061B   26066.42747761  .00006694  00000+0  38436-3 0  9992
2 63352  97.5565  42.7164 0016869 254.2160 105.7211 15.12740115 52205
LEMUR-2-KREMPEL-BRO2    
1 63353U 25061C   26066.48318125  .00007706  00000+0  43667-3 0  9994
2 63353  97.5611  43.1756 0017877 246.0841 113.8518 15.13148061 52220
LEMUR-2-THERMORAPTOR    
1 63354U 25061D   26066.46991915  .00007373  00000+0  41711-3 0  9995
2 63354  97.5620  43.2201 0017524 245.0400 114.9011 15.13226528 52221
LEMUR-2-NEUROSPICY      
1 63355U 25061E   26066.44923578  .00007490  00000+0  42269-3 0  9993
2 63355  97.5545  42.9056 0015251 248.7763 111.1840 15.13340811 52220
LEMUR-2-TILLINFINITY    
1 63356U 25061F   26066.45760835  .00007226  00000+0  40123-3 0  9994
2 63356  97.5534  43.1333 0016661 235.9733 123.9916 15.13915000 52246
